FLOCK 4G-5              
1 62663U 25009BG  26068.45638436  .00011278  00000+0  40688-3 0  9997
2 62663  97.4058 151.2478 0002094 314.5072  45.5996 15.28679529 63699
STARLINK-35158          
1 66381U 25257B   26068.72436884  .00022651  00000+0  77466-3 0  9997
2 66381  53.1596 217.2318 0001000  90.2549 269.8567 15.30195403 19733
